start=new Date('2022-12-21T00:00:00.000Z').valueOf();
sats=[{"COUNTRY_CODE":"US","RCS_SIZE":"LARGE","PERIOD":"95.437","TLE_LINE1":"1 53285U 22086AV  22354.56012883  .00001475  00000-0  11072-3 0  9991","ARG_OF_PERICENTER":"38.3739","SITE":"AFETR","MEAN_ELEMENT_THEORY":"SGP4","SEMIMAJOR_AXIS":"6917.841","OBJECT_ID":"2022-086AV","REV_AT_EPOCH":"2378","CLASSIFICATION_TYPE":"U","ELEMENT_SET_NO":"999","ECCENTRICITY":"0.00020030","OBJECT_NAME":"STARLINK-4173","OBJECT_TYPE":"PAYLOAD","PERIAPSIS":"538.320","INCLINATION":"53.2195","APOAPSIS":"541.091","EPHEMERIS_TYPE":"0","MEAN_MOTION_DOT":"0.00001475","BSTAR":"0.00011072000000","EPOCH":"2022-12-20T13:26:35.130912","MEAN_ANOMALY":"321.7396","CENTER_NAME":"EARTH","MEAN_MOTION_DDOT":"0.0000000000000","TLE_LINE2":"2 53285  53.2195  59.4728 0002003  38.3739 321.7396 15.08853030 23787","DECAY_DATE":null,"RA_OF_ASC_NODE":"59.4728","FILE":"3713130","TIME_SYSTEM":"UTC","NORAD_CAT_ID":"53285","LAUNCH_DATE":"2022-07-24","GP_ID":"221029836","MEAN_MOTION":"15.08853030","REF_FRAME":"TEME"},{"RA_OF_ASC_NODE":"59.4391","DECAY_DATE":null,"MEAN_ANOMALY":"320.3626","EPHEMERIS_TYPE":"0","EPOCH":"2022-12-20T13:37:11.498880","MEAN_MOTION_DOT":"0.00004406","BSTAR":"0.00029460000000","TLE_LINE2":"2 53286  53.2185  59.4391 0002016  39.7514 320.3626 15.08856880 23780","CENTER_NAME":"EARTH","MEAN_MOTION_DDOT":"0.0000000000000","MEAN_MOTION":"15.08856880","REF_FRAME":"TEME","TIME_SYSTEM":"UTC","FILE":"3713130","GP_ID":"221030476","LAUNCH_DATE":"2022-07-24","NORAD_CAT_ID":"53286","MEAN_ELEMENT_THEORY":"SGP4","REV_AT_EPOCH":"2378","OBJECT_ID":"2022-086AW","SEMIMAJOR_AXIS":"6917.829","TLE_LINE1":"1 53286U 22086AW  22354.56749420  .00004406  00000-0  29460-3 0  9993","PERIOD":"95.436","COUNTRY_CODE":"US","RCS_SIZE":"LARGE","ARG_OF_PERICENTER":"39.7514","SITE":"AFETR","INCLINATION":"53.2185","APOAPSIS":"541.088","PERIAPSIS":"538.299","CLASSIFICATION_TYPE":"U","OBJECT_TYPE":"PAYLOAD","ECCENTRICITY":"0.00020160","ELEMENT_SET_NO":"999","OBJECT_NAME":"STARLINK-4165"},{"MEAN_ELEMENT_THEORY":"SGP4","REV_AT_EPOCH":"2378","OBJECT_ID":"2022-086AX","SEMIMAJOR_AXIS":"6917.842","TLE_LINE1":"1 53287U 22086AX  22354.55276576 -.00000475  00000-0 -11714-4 0  9998","PERIOD":"95.437","COUNTRY_CODE":"US","RCS_SIZE":"LARGE","SITE":"AFETR","ARG_OF_PERICENTER":"38.0179","INCLINATION":"53.2186","APOAPSIS":"541.177","PERIAPSIS":"538.237","CLASSIFICATION_TYPE":"U","OBJECT_TYPE":"PAYLOAD","ELEMENT_SET_NO":"999","ECCENTRICITY":"0.00021250","OBJECT_NAME":"STARLINK-4107","RA_OF_ASC_NODE":"59.5030","DECAY_DATE":null,"MEAN_ANOMALY":"322.0963","EPHEMERIS_TYPE":"0","MEAN_MOTION_DOT":"-0.00000475","EPOCH":"2022-12-20T13:15:58.961664","BSTAR":"-0.00001171400000","TLE_LINE2":"2 53287  53.2186  59.5030 0002125  38.0179 322.0963 15.08852457 23782","CENTER_NAME":"EARTH","MEAN_MOTION_DDOT":"0.0000000000000","MEAN_MOTION":"15.08852457","REF_FRAME":"TEME","FILE":"3713130","TIME_SYSTEM":"UTC","GP_ID":"221030263","NORAD_CAT_ID":"53287","LAUNCH_DATE":"2022-07-24"},{"PERIAPSIS":"538.237","INCLINATION":"53.2185","APOAPSIS":"541.269","ECCENTRICITY":"0.00021920","ELEMENT_SET_NO":"999","OBJECT_NAME":"STARLINK-4162","OBJECT_TYPE":"PAYLOAD","CLASSIFICATION_TYPE":"U","SEMIMAJOR_AXIS":"6917.888","OBJECT_ID":"2022-086AY","REV_AT_EPOCH":"2378","MEAN_ELEMENT_THEORY":"SGP4","ARG_OF_PERICENTER":"31.1114","SITE":"AFETR","COUNTRY_CODE":"US","RCS_SIZE":"LARGE","TLE_LINE1":"1 53288U 22086AY  22354.56382575  .00001119  00000-0  88426-4 0  9995","PERIOD":"95.438","REF_FRAME":"TEME","MEAN_MOTION":"15.08837537","LAUNCH_DATE":"2022-07-24","NORAD_CAT_ID":"53288","GP_ID":"221029197","FILE":"3713130","TIME_SYSTEM":"UTC","DECAY_DATE":null,"RA_OF_ASC_NODE":"59.4524","CENTER_NAME":"EARTH","MEAN_MOTION_DDOT":"0.0000000000000","TLE_LINE2":"2 53288  53.2185  59.4524 0002192  31.1114 329.0007 15.08837537 23784","EPHEMERIS_TYPE":"0","MEAN_MOTION_DOT":"0.00001119","BSTAR":"0.00008842600000","EPOCH":"2022-12-20T13:31:54.544800","MEAN_ANOMALY":"329.0007"},{"CLASSIFICATION_TYPE":"U","OBJECT_TYPE":"PAYLOAD","ELEMENT_SET_NO":"999","ECCENTRICITY":"0.00020460","OBJECT_NAME":"STARLINK-4176","INCLINATION":"53.2183","APOAPSIS":"541.134","PERIAPSIS":"538.303","TLE_LINE1":"1 53289U 22086AZ  22354.46036001  .00001910  00000-0  13804-3 0  9991","PERIOD":"95.437","COUNTRY_CODE":"US","RCS_SIZE":"LARGE","SITE":"AFETR","ARG_OF_PERICENTER":"37.9296","MEAN_ELEMENT_THEORY":"SGP4","REV_AT_EPOCH":"2383","OBJECT_ID":"2022-086AZ","SEMIMAJOR_AXIS":"6917.853","FILE":"3713130","TIME_SYSTEM":"UTC","GP_ID":"221029410","NORAD_CAT_ID":"53289","LAUNCH_DATE":"2022-07-24","MEAN_MOTION":"15.08848833","REF_FRAME":"TEME","MEAN_ANOMALY":"322.1840","EPHEMERIS_TYPE":"0","MEAN_MOTION_DOT":"0.00001910","EPOCH":"2022-12-20T11:02:55.104864","BSTAR":"0.00013804000000","TLE_LINE2":"2 53289  53.2183  55.0351 0002046  37.9296 322.1840 15.08848833 23832","CENTER_NAME":"EARTH","MEAN_MOTION_DDOT":"0.0000000000000","RA_OF_ASC_NODE":"55.0351","DECAY_DATE":null},{"TIME_SYSTEM":"UTC","FILE":"3713130","GP_ID":"221030050","LAUNCH_DATE":"2022-07-24","NORAD_CAT_ID":"53290","MEAN_MOTION":"15.08841922","REF_FRAME":"TEME","MEAN_ANOMALY":"319.3462","EPHEMERIS_TYPE":"0","MEAN_MOTION_DOT":"0.00000941","EPOCH":"2022-12-20T11:45:54.620064","BSTAR":"0.00007721600000","TLE_LINE2":"2 53290  53.2201  59.7863 0001812  40.7666 319.3462 15.08841922 23770","CENTER_NAME":"EARTH","MEAN_MOTION_DDOT":"0.0000000000000","RA_OF_ASC_NODE":"59.7863","DECAY_DATE":null,"CLASSIFICATION_TYPE":"U","OBJECT_TYPE":"PAYLOAD","ELEMENT_SET_NO":"999","ECCENTRICITY":"0.00018120","OBJECT_NAME":"STARLINK-4149","INCLINATION":"53.2201","APOAPSIS":"540.993","PERIAPSIS":"538.486","PERIOD":"95.437","TLE_LINE1":"1 53290U 22086BA  22354.49021551  .00000941  00000-0  77216-4 0  9991","COUNTRY_CODE":"US","RCS_SIZE":"LARGE","ARG_OF_PERICENTER":"40.7666","SITE":"AFETR","MEAN_ELEMENT_THEORY":"SGP4","REV_AT_EPOCH":"2377","OBJECT_ID":"2022-086BA","SEMIMAJOR_AXIS":"6917.875"},{"REV_AT_EPOCH":"2385","OBJECT_ID":"2022-086BB","SEMIMAJOR_AXIS":"6917.843","MEAN_ELEMENT_THEORY":"SGP4","ARG_OF_PERICENTER":"36.2686","SITE":"AFETR","PERIOD":"95.437","TLE_LINE1":"1 53291U 22086BB  22354.55968361  .00004279  00000-0  28667-3 0  9991","COUNTRY_CODE":"US","RCS_SIZE":"LARGE","INCLINATION":"53.2173","APOAPSIS":"541.193","PERIAPSIS":"538.222","OBJECT_TYPE":"PAYLOAD","ELEMENT_SET_NO":"999","ECCENTRICITY":"0.00021470","OBJECT_NAME":"STARLINK-4166","CLASSIFICATION_TYPE":"U","RA_OF_ASC_NODE":"54.2374","DECAY_DATE":null,"TLE_LINE2":"2 53291  53.2173  54.2374 0002147  36.2686 323.8452 15.08852357 23852","CENTER_NAME":"EARTH","MEAN_MOTION_DDOT":"0.0000000000000","MEAN_ANOMALY":"323.8452","EPHEMERIS_TYPE":"0","MEAN_MOTION_DOT":"0.00004279","EPOCH":"2022-12-20T13:25:56.663904","BSTAR":"0.00028667000000","REF_FRAME":"TEME","MEAN_MOTION":"15.08852357","GP_ID":"221030690","LAUNCH_DATE":"2022-07-24","NORAD_CAT_ID":"53291","TIME_SYSTEM":"UTC","FILE":"3713130"},{"DECAY_DATE":null,"RA_OF_ASC_NODE":"59.8158","MEAN_MOTION_DDOT":"0.0000000000000","CENTER_NAME":"EARTH","TLE_LINE2":"2 53292  53.2207  59.8158 0002175  34.1822 325.9310 15.08839895 23771","MEAN_MOTION_DOT":"0.00001601","BSTAR":"0.00011868000000","EPOCH":"2022-12-20T11:36:42.721056","EPHEMERIS_TYPE":"0","MEAN_ANOMALY":"325.9310","REF_FRAME":"TEME","MEAN_MOTION":"15.08839895","LAUNCH_DATE":"2022-07-24","NORAD_CAT_ID":"53292","GP_ID":"221029624","TIME_SYSTEM":"UTC","FILE":"3713130","SEMIMAJOR_AXIS":"6917.881","OBJECT_ID":"2022-086BC","REV_AT_EPOCH":"2377","MEAN_ELEMENT_THEORY":"SGP4","SITE":"AFETR","ARG_OF_PERICENTER":"34.1822","RCS_SIZE":"LARGE","COUNTRY_CODE":"US","PERIOD":"95.438","TLE_LINE1":"1 53292U 22086BC  22354.48382779  .00001601  00000-0  11868-3 0  9998","PERIAPSIS":"538.241","APOAPSIS":"541.250","INCLINATION":"53.2207","OBJECT_NAME":"STARLINK-4159","ELEMENT_SET_NO":"999","ECCENTRICITY":"0.00021750","OBJECT_TYPE":"PAYLOAD","CLASSIFICATION_TYPE":"U"},{"REF_FRAME":"TEME","MEAN_MOTION":"15.08842567","GP_ID":"221029837","LAUNCH_DATE":"2022-07-24","NORAD_CAT_ID":"53293","TIME_SYSTEM":"UTC","FILE":"3713130","RA_OF_ASC_NODE":"49.6549","DECAY_DATE":null,"TLE_LINE2":"2 53293  53.2179  49.6549 0001742  44.0580 316.0551 15.08842567 23915","MEAN_MOTION_DDOT":"0.0000000000000","CENTER_NAME":"EARTH","MEAN_ANOMALY":"316.0551","EPOCH":"2022-12-20T12:30:59.872320","MEAN_MOTION_DOT":"0.00001818","BSTAR":"0.00013230000000","EPHEMERIS_TYPE":"0","APOAPSIS":"540.943","INCLINATION":"53.2179","PERIAPSIS":"538.532","OBJECT_TYPE":"PAYLOAD","OBJECT_NAME":"STARLINK-4148","ECCENTRICITY":"0.00017420","ELEMENT_SET_NO":"999","CLASSIFICATION_TYPE":"U","OBJECT_ID":"2022-086BD","REV_AT_EPOCH":"2391","SEMIMAJOR_AXIS":"6917.873","MEAN_ELEMENT_THEORY":"SGP4","SITE":"AFETR","ARG_OF_PERICENTER":"44.0580","PERIOD":"95.437","TLE_LINE1":"1 53293U 22086BD  22354.52152630  .00001818  00000-0  13230-3 0  9990","RCS_SIZE":"LARGE","COUNTRY_CODE":"US"},{"CLASSIFICATION_TYPE":"U","OBJECT_TYPE":"PAYLOAD","OBJECT_NAME":"STARLINK-4146","ECCENTRICITY":"0.00020340","ELEMENT_SET_NO":"999","APOAPSIS":"541.137","INCLINATION":"53.2205","PERIAPSIS":"538.323","PERIOD":"95.437","TLE_LINE1":"1 53294U 22086BE  22354.55464555  .00001257  00000-0  97083-4 0  9992","RCS_SIZE":"LARGE","COUNTRY_CODE":"US","ARG_OF_PERICENTER":"38.0173","SITE":"AFETR","MEAN_ELEMENT_THEORY":"SGP4","OBJECT_ID":"2022-086BE","REV_AT_EPOCH":"2396","SEMIMAJOR_AXIS":"6917.865","TIME_SYSTEM":"UTC","FILE":"3713130","GP_ID":"221030477","NORAD_CAT_ID":"53294","LAUNCH_DATE":"2022-07-24","MEAN_MOTION":"15.08844973","REF_FRAME":"TEME","MEAN_ANOMALY":"322.0963","EPOCH":"2022-12-20T13:18:41.375520","MEAN_MOTION_DOT":"0.00001257","BSTAR":"0.00009708300000","EPHEMERIS_TYPE":"0","TLE_LINE2":"2 53294  53.2205  49.4967 0002034  38.0173 322.0963 15.08844973 23966","MEAN_MOTION_DDOT":"0.0000000000000","CENTER_NAME":"EARTH","RA_OF_ASC_NODE":"49.4967","DECAY_DATE":null}];
